<ndm xmlns:xsi="http://www.w3.org/2001/XMLSchema-instance" xsi:noNamespaceSchemaLocation="http://sanaregistry.org/r/ndmxml/ndmxml-1.0-master.xsd">
<omm id="CCSDS_OMM_VERS" version="2.0">
<header>
<COMMENT>GENERATED VIA SPACE-TRACK.ORG API</COMMENT>
<CREATION_DATE>2020-11-08T05:03:59</CREATION_DATE>
<ORIGINATOR>18 SPCS</ORIGINATOR>
</header>
<body>
<segment>
<metadata>
<OBJECT_NAME>IRIDIUM 2</OBJECT_NAME>
<OBJECT_ID>1998-066A</OBJECT_ID>
<CENTER_NAME>EARTH</CENTER_NAME>
<REF_FRAME>TEME</REF_FRAME>
<TIME_SYSTEM>UTC</TIME_SYSTEM>
<MEAN_ELEMENT_THEORY>SGP4</MEAN_ELEMENT_THEORY>
</metadata>
<data>
<meanElements>
<EPOCH>2020-11-07T17:09:01.626624</EPOCH>
<MEAN_MOTION>15.18866637</MEAN_MOTION>
<ECCENTRICITY>0.00080580</ECCENTRICITY>
<INCLINATION>85.5326</INCLINATION>
<RA_OF_ASC_NODE>19.1442</RA_OF_ASC_NODE>
<ARG_OF_PERICENTER>191.3971</ARG_OF_PERICENTER>
<MEAN_ANOMALY>168.7089</MEAN_ANOMALY>
</meanElements>
<tleParameters>
<EPHEMERIS_TYPE>0</EPHEMERIS_TYPE>
<CLASSIFICATION_TYPE>U</CLASSIFICATION_TYPE>
<NORAD_CAT_ID>25527</NORAD_CAT_ID>
<ELEMENT_SET_NO>999</ELEMENT_SET_NO>
<REV_AT_EPOCH>20637</REV_AT_EPOCH>
<BSTAR>0.00005639100000</BSTAR>
<MEAN_MOTION_DOT>0.00001214</MEAN_MOTION_DOT>
<MEAN_MOTION_DDOT>0.0000000000000</MEAN_MOTION_DDOT>
</tleParameters>
<userDefinedParameters>
<USER_DEFINED parameter="SEMIMAJOR_AXIS">6887.401</USER_DEFINED>
<USER_DEFINED parameter="PERIOD">94.807</USER_DEFINED>
<USER_DEFINED parameter="APOAPSIS">514.816</USER_DEFINED>
<USER_DEFINED parameter="PERIAPSIS">503.716</USER_DEFINED>
<USER_DEFINED parameter="OBJECT_TYPE">PAYLOAD</USER_DEFINED>
<USER_DEFINED parameter="RCS_SIZE">LARGE</USER_DEFINED>
<USER_DEFINED parameter="COUNTRY_CODE">US</USER_DEFINED>
<USER_DEFINED parameter="LAUNCH_DATE">1998-11-06</USER_DEFINED>
<USER_DEFINED parameter="SITE">AFWTR</USER_DEFINED>
<USER_DEFINED parameter="DECAY_DATE"/>
<USER_DEFINED parameter="DECAYED"/>
<USER_DEFINED parameter="FILE">2875047</USER_DEFINED>
<USER_DEFINED parameter="GP_ID">165115567</USER_DEFINED>
</userDefinedParameters>
</data>
</segment>
</body>
</omm>
<omm id="CCSDS_OMM_VERS" version="2.0">
<header>
<COMMENT>GENERATED VIA SPACE-TRACK.ORG API</COMMENT>
<CREATION_DATE>2020-11-08T05:03:59</CREATION_DATE>
<ORIGINATOR>18 SPCS</ORIGINATOR>
</header>
<body>
<segment>
<metadata>
<OBJECT_NAME>IRIDIUM 106</OBJECT_NAME>
<OBJECT_ID>2017-003A</OBJECT_ID>
<CENTER_NAME>EARTH</CENTER_NAME>
<REF_FRAME>TEME</REF_FRAME>
<TIME_SYSTEM>UTC</TIME_SYSTEM>
<MEAN_ELEMENT_THEORY>SGP4</MEAN_ELEMENT_THEORY>
</metadata>
<data>
<meanElements>
<EPOCH>2020-11-07T19:23:38.570784</EPOCH>
<MEAN_MOTION>14.34219882</MEAN_MOTION>
<ECCENTRICITY>0.00021990</ECCENTRICITY>
<INCLINATION>86.4022</INCLINATION>
<RA_OF_ASC_NODE>224.0349</RA_OF_ASC_NODE>
<ARG_OF_PERICENTER>93.5612</ARG_OF_PERICENTER>
<MEAN_ANOMALY>266.5835</MEAN_ANOMALY>
</meanElements>
<tleParameters>
<EPHEMERIS_TYPE>0</EPHEMERIS_TYPE>
<CLASSIFICATION_TYPE>U</CLASSIFICATION_TYPE>
<NORAD_CAT_ID>41917</NORAD_CAT_ID>
<ELEMENT_SET_NO>999</ELEMENT_SET_NO>
<REV_AT_EPOCH>19975</REV_AT_EPOCH>
<BSTAR>0.00002654100000</BSTAR>
<MEAN_MOTION_DOT>0.00000094</MEAN_MOTION_DOT>
<MEAN_MOTION_DDOT>0.0000000000000</MEAN_MOTION_DDOT>
</tleParameters>
<userDefinedParameters>
<USER_DEFINED parameter="SEMIMAJOR_AXIS">7155.797</USER_DEFINED>
<USER_DEFINED parameter="PERIOD">100.403</USER_DEFINED>
<USER_DEFINED parameter="APOAPSIS">779.235</USER_DEFINED>
<USER_DEFINED parameter="PERIAPSIS">776.088</USER_DEFINED>
<USER_DEFINED parameter="OBJECT_TYPE">PAYLOAD</USER_DEFINED>
<USER_DEFINED parameter="RCS_SIZE">LARGE</USER_DEFINED>
<USER_DEFINED parameter="COUNTRY_CODE">US</USER_DEFINED>
<USER_DEFINED parameter="LAUNCH_DATE">2017-01-14</USER_DEFINED>
<USER_DEFINED parameter="SITE">AFWTR</USER_DEFINED>
<USER_DEFINED parameter="DECAY_DATE"/>
<USER_DEFINED parameter="DECAYED"/>
<USER_DEFINED parameter="FILE">2875047</USER_DEFINED>
<USER_DEFINED parameter="GP_ID">165125953</USER_DEFINED>
</userDefinedParameters>
</data>
</segment>
</body>
</omm>
<omm id="CCSDS_OMM_VERS" version="2.0">
<header>
<COMMENT>GENERATED VIA SPACE-TRACK.ORG API</COMMENT>
<CREATION_DATE>2020-11-08T05:03:59</CREATION_DATE>
<ORIGINATOR>18 SPCS</ORIGINATOR>
</header>
<body>
<segment>
<metadata>
<OBJECT_NAME>IRIDIUM 103</OBJECT_NAME>
<OBJECT_ID>2017-003B</OBJECT_ID>
<CENTER_NAME>EARTH</CENTER_NAME>
<REF_FRAME>TEME</REF_FRAME>
<TIME_SYSTEM>UTC</TIME_SYSTEM>
<MEAN_ELEMENT_THEORY>SGP4</MEAN_ELEMENT_THEORY>
</metadata>
<data>
<meanElements>
<EPOCH>2020-11-07T19:05:22.649856</EPOCH>
<MEAN_MOTION>14.34218555</MEAN_MOTION>
<ECCENTRICITY>0.00016670</ECCENTRICITY>
<INCLINATION>86.4021</INCLINATION>
<RA_OF_ASC_NODE>223.9469</RA_OF_ASC_NODE>
<ARG_OF_PERICENTER>84.3823</ARG_OF_PERICENTER>
<MEAN_ANOMALY>275.7563</MEAN_ANOMALY>
</meanElements>
<tleParameters>
<EPHEMERIS_TYPE>0</EPHEMERIS_TYPE>
<CLASSIFICATION_TYPE>U</CLASSIFICATION_TYPE>
<NORAD_CAT_ID>41918</NORAD_CAT_ID>
<ELEMENT_SET_NO>999</ELEMENT_SET_NO>
<REV_AT_EPOCH>19978</REV_AT_EPOCH>
<BSTAR>0.00002444600000</BSTAR>
<MEAN_MOTION_DOT>0.00000088</MEAN_MOTION_DOT>
<MEAN_MOTION_DDOT>0.0000000000000</MEAN_MOTION_DDOT>
</tleParameters>
<userDefinedParameters>
<USER_DEFINED parameter="SEMIMAJOR_AXIS">7155.801</USER_DEFINED>
<USER_DEFINED parameter="PERIOD">100.403</USER_DEFINED>
<USER_DEFINED parameter="APOAPSIS">778.859</USER_DEFINED>
<USER_DEFINED parameter="PERIAPSIS">776.473</USER_DEFINED>
<USER_DEFINED parameter="OBJECT_TYPE">PAYLOAD</USER_DEFINED>
<USER_DEFINED parameter="RCS_SIZE">LARGE</USER_DEFINED>
<USER_DEFINED parameter="COUNTRY_CODE">US</USER_DEFINED>
<USER_DEFINED parameter="LAUNCH_DATE">2017-01-14</USER_DEFINED>
<USER_DEFINED parameter="SITE">AFWTR</USER_DEFINED>
<USER_DEFINED parameter="DECAY_DATE"/>
<USER_DEFINED parameter="DECAYED"/>
<USER_DEFINED parameter="FILE">2875047</USER_DEFINED>
<USER_DEFINED parameter="GP_ID">165125875</USER_DEFINED>
</userDefinedParameters>
</data>
</segment>
</body>
</omm>
<omm id="CCSDS_OMM_VERS" version="2.0">
<header>
<COMMENT>GENERATED VIA SPACE-TRACK.ORG API</COMMENT>
<CREATION_DATE>2020-11-08T05:03:59</CREATION_DATE>
<ORIGINATOR>18 SPCS</ORIGINATOR>
</header>
<body>
<segment>
<metadata>
<OBJECT_NAME>IRIDIUM 109</OBJECT_NAME>
<OBJECT_ID>2017-003C</OBJECT_ID>
<CENTER_NAME>EARTH</CENTER_NAME>
<REF_FRAME>TEME</REF_FRAME>
<TIME_SYSTEM>UTC</TIME_SYSTEM>
<MEAN_ELEMENT_THEORY>SGP4</MEAN_ELEMENT_THEORY>
</metadata>
<data>
<meanElements>
<EPOCH>2020-11-07T19:14:30.144192</EPOCH>
<MEAN_MOTION>14.34216483</MEAN_MOTION>
<ECCENTRICITY>0.00019610</ECCENTRICITY>
<INCLINATION>86.4024</INCLINATION>
<RA_OF_ASC_NODE>223.9697</RA_OF_ASC_NODE>
<ARG_OF_PERICENTER>84.2241</ARG_OF_PERICENTER>
<MEAN_ANOMALY>275.9178</MEAN_ANOMALY>
</meanElements>
<tleParameters>
<EPHEMERIS_TYPE>0</EPHEMERIS_TYPE>
<CLASSIFICATION_TYPE>U</CLASSIFICATION_TYPE>
<NORAD_CAT_ID>41919</NORAD_CAT_ID>
<ELEMENT_SET_NO>999</ELEMENT_SET_NO>
<REV_AT_EPOCH>19974</REV_AT_EPOCH>
<BSTAR>0.00002466600000</BSTAR>
<MEAN_MOTION_DOT>0.00000089</MEAN_MOTION_DOT>
<MEAN_MOTION_DDOT>0.0000000000000</MEAN_MOTION_DDOT>
</tleParameters>
<userDefinedParameters>
<USER_DEFINED parameter="SEMIMAJOR_AXIS">7155.808</USER_DEFINED>
<USER_DEFINED parameter="PERIOD">100.403</USER_DEFINED>
<USER_DEFINED parameter="APOAPSIS">779.076</USER_DEFINED>
<USER_DEFINED parameter="PERIAPSIS">776.270</USER_DEFINED>
<USER_DEFINED parameter="OBJECT_TYPE">PAYLOAD</USER_DEFINED>
<USER_DEFINED parameter="RCS_SIZE">LARGE</USER_DEFINED>
<USER_DEFINED parameter="COUNTRY_CODE">US</USER_DEFINED>
<USER_DEFINED parameter="LAUNCH_DATE">2017-01-14</USER_DEFINED>
<USER_DEFINED parameter="SITE">AFWTR</USER_DEFINED>
<USER_DEFINED parameter="DECAY_DATE"/>
<USER_DEFINED parameter="DECAYED"/>
<USER_DEFINED parameter="FILE">2875047</USER_DEFINED>
<USER_DEFINED parameter="GP_ID">165125247</USER_DEFINED>
</userDefinedParameters>
</data>
</segment>
</body>
</omm>

</ndm>