IRIDIUM 2
1 25527U 98066A   20312.71460216 +.00001214 +00000-0 +56391-4 0  9991
2 25527 085.5326 019.1442 0008058 191.3971 168.7089 15.18866637206373
IRIDIUM 106
1 41917U 17003A   20312.80808531 +.00000094 +00000-0 +26541-4 0  9999
2 41917 086.4022 224.0349 0002199 093.5612 266.5835 14.34219882199755
IRIDIUM 103
1 41918U 17003B   20312.79540104 +.00000088 +00000-0 +24446-4 0  9992
2 41918 086.4021 223.9469 0001667 084.3823 275.7563 14.34218555199786
IRIDIUM 109
1 41919U 17003C   20312.80173778 +.00000089 +00000-0 +24666-4 0  9999
2 41919 086.4024 223.9697 0001961 084.2241 275.9178 14.34216483199741
